     2.100          NAVIGATION                              RINEX VERSION / TYPE
fic2rin                                 08/12/2011 00:03:31 PGM / RUN BY / DATE
                                                            END OF HEADER
17 11  8 11  1 59 44.0  .179651658982D-03 -.125055521494D-11  .000000000000D+00
     .220000000000D+02 -.492187500000D+02  .440196907397D-08 -.617740706100D+00
    -.240467488766D-05  .644103507511D-02  .116657465696D-04  .515379894257D+04
     .352784000000D+06  .149011611938D-07  .301919767686D+01  .156462192535D-06
     .962015126420D+00  .156468750000D+03 -.239488795071D+01 -.786354183380D-08
     .463947896721D-09  .100000000000D+01  .164800000000D+04  .000000000000D+00
     .240000000000D+01  .000000000000D+00 -.107102096081D-07  .220000000000D+02
     .347226000000D+06  .400000000000D+01
24 11  8 11  1 59 44.0  .414278823882D-03  .318323145621D-11  .000000000000D+00
     .110000000000D+02  .210000000000D+02  .528272004649D-08 -.242271712618D+01
     .110268592834D-05  .655659066979D-02  .602379441261D-05  .515342040443D+04
     .352784000000D+06 -.189989805222D-06 -.219381373598D+01 -.279396772385D-07
     .948052353089D+00  .259000000000D+03 -.230151139359D+00 -.826320133836D-08
     .280368821344D-09  .100000000000D+01  .164800000000D+04  .000000000000D+00
     .240000000000D+01  .000000000000D+00 -.139698386192D-08  .110000000000D+02
     .347376000000D+06  .400000000000D+01
32 11  8 11  1 59 44.0 -.308304093778D-03 -.704858393874D-11  .000000000000D+00
     .000000000000D+00 -.100312500000D+02  .465447959204D-08 -.266643999209D+01
    -.525265932083D-06  .121880182996D-01  .837817788124D-05  .515360487938D+04
     .352784000000D+06 -.484287738800D-07 -.111340246527D+01  .223517417908D-06
     .953889909709D+00  .212625000000D+03 -.754770743094D+00 -.780603943859D-08
    -.631454874059D-09  .100000000000D+01  .164800000000D+04  .000000000000D+00
     .240000000000D+01  .000000000000D+00 -.279396772385D-08  .000000000000D+00
     .348216000000D+06  .400000000000D+01
30 11  8 11  1 59 44.0  .944077037275D-04 -.204636307899D-11  .000000000000D+00
     .450000000000D+02 -.967187500000D+02  .473734018638D-08  .741620699753D+00
    -.524520874023D-05  .117374826223D-01  .349432229996D-05  .515544299889D+04
     .352784000000D+06 -.856816768646D-07  .184000777678D+01 -.119209289551D-06
     .956010492852D+00  .310156250000D+03  .156468021448D+01 -.855785646907D-08
    -.207508643568D-09  .100000000000D+01  .164800000000D+04  .000000000000D+00
     .240000000000D+01  .630000000000D+02 -.419095158577D-08  .450000000000D+02
     .349416000000D+06  .400000000000D+01
 3 11  8 11  1 59 44.0  .753332860768D-03  .488853402203D-11  .000000000000D+00
     .210000000000D+02 -.551250000000D+02  .499770817461D-08 -.170772676247D+01
    -.283122062683D-05  .146161813755D-01  .103712081909D-04  .515367089462D+04
     .352784000000D+06  .324100255966D-06  .285946506623D+01  .167638063431D-07
     .929698783286D+00  .155375000000D+03  .111743598204D+01 -.801069082028D-08
     .357157734196D-09  .100000000000D+01  .164800000000D+04  .000000000000D+00
     .240000000000D+01  .000000000000D+00 -.465661287308D-08  .210000000000D+02
     .349986000000D+06  .400000000000D+01
 2 11  8 11  1 59 44.0  .350770074874D-03  .170530256582D-11  .000000000000D+00
     .140000000000D+02  .202187500000D+02  .551844415106D-08 -.188877106566D+01
     .104866921902D-05  .103939456167D-01  .607222318649D-05  .515378728867D+04
     .352784000000D+06  .968575477600D-07 -.226497134410D+01 -.197440385818D-06
     .938819085652D+00  .250125000000D+03 -.295372506788D+01 -.840713590524D-08
     .475734101949D-09  .100000000000D+01  .164800000000D+04  .000000000000D+00
     .240000000000D+01  .000000000000D+00 -.172294676304D-07  .140000000000D+02
     .350136000000D+06  .400000000000D+01
13 11  8 11  1 59 44.0  .256962142885D-03 -.181898940355D-11  .000000000000D+00
     .100000000000D+01  .102781250000D+03  .357622039251D-08 -.901130842962D+00
     .528432428837D-05  .468177697621D-02  .102184712887D-04  .515356847382D+04
     .352784000000D+06 -.577419996262D-07 -.700247521491D-01  .782310962677D-07
     .989276211302D+00  .199062500000D+03  .191581975678D+01 -.759745932182D-08
    -.482162941165D-10  .100000000000D+01  .164800000000D+04  .000000000000D+00
     .240000000000D+01  .000000000000D+00 -.111758708954D-07  .100000000000D+01
     .350856000000D+06  .400000000000D+01
 2 11  8 11  3 59 44.0  .350782182068D-03  .170530256582D-11  .000000000000D+00
     .150000000000D+02  .208437500000D+02  .553773066871D-08 -.838679336829D+00
     .115483999252D-05  .103939528344D-01  .592507421970D-05  .515378676414D+04
     .359984000000D+06  .191852450371D-06 -.226503180504D+01 -.800937414169D-07
     .938822529361D+00  .252187500000D+03 -.295369795415D+01 -.845928093443D-08
     .462876423518D-09  .100000000000D+01  .164800000000D+04  .000000000000D+00
     .240000000000D+01  .000000000000D+00 -.172294676304D-07  .150000000000D+02
     .352806000000D+06  .400000000000D+01
 3 11  8 11  3 59 44.0  .753367785364D-03  .488853402203D-11  .000000000000D+00
     .380000000000D+02 -.593125000000D+02  .503449542123D-08 -.657445914907D+00
    -.289455056190D-05  .146165476181D-01  .104904174805D-04  .515367360687D+04
     .359984000000D+06 -.484287738800D-07  .285940620426D+01  .219792127609D-06
     .929699424044D+00  .165187500000D+03  .111734010092D+01 -.841035032485D-08
     .310370071016D-09  .100000000000D+01  .164800000000D+04  .000000000000D+00
     .240000000000D+01  .000000000000D+00 -.465661287308D-08  .380000000000D+02
     .352806000000D+06  .400000000000D+01
13 11  8 11  3 59 44.0  .256949104369D-03 -.181898940355D-11  .000000000000D+00
     .160000000000D+02  .927812500000D+02  .358657796680D-08  .148953713183D+00
     .478141009808D-05  .468174822163D-02  .101625919342D-04  .515356791115D+04
     .359984000000D+06 -.707805156708D-07 -.700788508597D-01 -.651925802231D-07
     .989275465214D+00  .200406250000D+03  .191597439161D+01 -.759317342901D-08
    -.162506769059D-09  .100000000000D+01  .164800000000D+04  .000000000000D+00
     .240000000000D+01  .000000000000D+00 -.111758708954D-07  .160000000000D+02
     .352806000000D+06  .400000000000D+01
17 11  8 11  3 59 44.0  .179642811418D-03 -.125055521494D-11  .000000000000D+00
     .230000000000D+02 -.439375000000D+02  .430232206613D-08  .432396229827D+00
    -.241398811340D-05  .644187466241D-02  .115670263767D-04  .515380057907D+04
     .359984000000D+06 -.912696123123D-07  .301914109557D+01  .141561031342D-06
     .962018413597D+00  .160125000000D+03 -.239492244632D+01 -.785997025645D-08
     .431089385175D-09  .100000000000D+01  .164800000000D+04  .000000000000D+00
     .240000000000D+01  .000000000000D+00 -.107102096081D-07  .230000000000D+02
     .352806000000D+06  .400000000000D+01
24 11  8 11  3 59 44.0  .414302106947D-03  .318323145621D-11  .000000000000D+00
     .120000000000D+02  .185937500000D+02  .532450750140D-08 -.137243685354D+01
     .784173607826D-06  .655668997206D-02  .586733222008D-05  .515341962624D+04
     .359984000000D+06  .372529029846D-07 -.219387479818D+01 -.106170773506D-06
     .948054546003D+00  .260750000000D+03 -.230089206722D+00 -.840106422376D-08
     .437518224390D-09  .100000000000D+01  .164800000000D+04  .000000000000D+00
     .240000000000D+01  .000000000000D+00 -.139698386192D-08  .120000000000D+02
     .352806000000D+06  .400000000000D+01
30 11  8 11  3 59 44.0  .943928025663D-04 -.204636307899D-11  .000000000000D+00
     .460000000000D+02 -.111156250000D+03  .452483133453D-08  .179052463273D+01
    -.593066215515D-05  .117385662161D-01  .284798443317D-05  .515544775963D+04
     .359984000000D+06  .175088644028D-06  .183994655659D+01 -.219792127609D-06
     .956010165158D+00  .321968750000D+03  .156487543943D+01 -.831320342115D-08
    -.179293182566D-09  .100000000000D+01  .164800000000D+04  .000000000000D+00
     .240000000000D+01  .630000000000D+02 -.419095158577D-08  .460000000000D+02
     .352806000000D+06  .400000000000D+01
32 11  8 11  3 59 44.0 -.308354385197D-03 -.704858393874D-11  .000000000000D+00
     .100000000000D+01 -.150000000000D+02  .488198906873D-08 -.161626099434D+01
    -.823289155960D-06  .121880712686D-01  .856444239616D-05  .515360395622D+04
     .359984000000D+06 -.340864062309D-06 -.111346080205D+01 -.115483999252D-06
     .953883837136D+00  .211031250000D+03 -.754724667026D+00 -.821891377932D-08
    -.531807866218D-09  .100000000000D+01  .164800000000D+04  .000000000000D+00
     .240000000000D+01  .000000000000D+00 -.279396772385D-08  .100000000000D+01
     .352806000000D+06  .400000000000D+01
 1 11  8 11  4  0  0.0 -.766990706325D-05  .125055521494D-11  .000000000000D+00
     .360000000000D+02  .224062500000D+02  .486663128616D-08 -.301615374810D+01
     .118277966976D-05  .291847856715D-03  .610016286373D-05  .518035122299D+04
     .360000000000D+06 -.428408384323D-07 -.225767405271D+01  .316649675369D-07
     .960194113790D+00  .257718750000D+03  .238449471943D+01 -.789532887214D-08
     .461804950316D-09  .100000000000D+01  .164800000000D+04  .000000000000D+00
     .240000000000D+01  .630000000000D+02  .791624188423D-08  .360000000000D+02
     .352806000000D+06  .400000000000D+01
 4 11  8 11  4  0  0.0  .198018737137D-03  .110276232590D-10  .000000000000D+00
     .690000000000D+02  .186250000000D+02  .550344352623D-08  .240147603550D+01
     .903382897377D-06  .967349635903D-02  .615045428276D-05  .515367975998D+04
     .360000000000D+06 -.108033418655D-06 -.224776534283D+01 -.171363353729D-06
     .937892550875D+00  .250437500000D+03  .746798022427D+00 -.828605943335D-08
     .398588031363D-09  .100000000000D+01  .164800000000D+04  .000000000000D+00
     .240000000000D+01  .000000000000D+00 -.651925802231D-08  .690000000000D+02
     .352806000000D+06  .400000000000D+01
